2022-019M               
1 51835U 22019M   22059.76158108  .00001543  00000+0  10000-3 0  9996
2 51835  97.5211 136.5240 0015611 270.9730  88.9674 15.09506177   241
2022-019N               
1 51836U 22019N   22059.76155172  .00001544  00000+0  10000-3 0  9996
2 51836  97.5222 136.5314 0014261 273.1446  86.7876 15.09535216   241
2022-019P               
1 51837U 22019P   22059.76136969  .00022120  00000+0  13696-2 0  9996
2 51837  97.5145 136.5264 0014801 271.4986  88.4459 15.09710594   240
2022-019Q               
1 51838U 22019Q   22059.76131015  .00001554  00000+0  10000-3 0  9999
2 51838  97.5212 136.5341 0014637 268.3162  91.6338 15.09763065   243
2022-019R               
1 51839U 22019R   22059.76128708  .00001554  00000+0  10000-3 0  9995
2 51839  97.5202 136.5269 0014405 269.6110  90.2425 15.09769642   241
2022-019S               
1 51840U 22019S   22059.76128113  .00118863  00000+0  72281-2 0  9997
2 51840  97.5204 136.5271 0014590 266.3948  93.5627 15.09803658   242
2022-019T               
1 51841U 22019T   22059.76121519  .00001558  00000+0  10000-3 0  9995
2 51841  97.5196 136.5318 0014241 266.7292  93.2296 15.09855796   243
2022-019U               
1 51842U 22019U   22059.81429468  .00002363  00000+0  10000-3 0  9991
2 51842  97.5677 136.6369 0071168 207.5849 152.1510 15.21959077   253
2022-019V               
1 51843U 22019V   22059.76113075  .00067473  00000+0  41186-2 0  9991
2 51843  97.5231 136.5329 0014700 274.9587  84.9910 15.09935551   232
2022-019W               
1 51844U 22019W   22059.56315968  .00002473  00000+0  15975-3 0  9992
2 51844  97.5217 136.3361 0017091 272.6522  87.2759 15.09055489   118
2022-019X               
1 51845U 22019X   22059.76147652  .00190891  00000+0  11544-1 0  9996
2 51845  97.5225 136.5282 0015492 268.2103  91.7474 15.09626266   167
2022-019Y               
1 51846U 22019Y   22059.76141866  .00130063  00000+0  79226-2 0  9995
2 51846  97.5192 136.5355 0015549 265.4679  94.4819 15.09672417   164
